BEESAT-4                
1 41619U 16040W   21236.40675266  .00002433  00000-0  97612-4 0  9993
2 41619  97.2639 290.5877 0012394  92.0149 268.2509 15.25856105275375
CAS-2T & KS-1Q          
1 41847U 16066G   21236.58558253  .00000097  00000-0  24695-4 0  9994
2 41847  98.5959 295.9752 0365441  17.1901 344.1289 14.38227388251670
NAYIF-1 (EO-88)         
1 42017U 17008BX  21236.45446156  .00002642  00000-0  97741-4 0  9995
2 42017  97.3112 302.8365 0004897 211.8527 148.2418 15.28551872251640
ZHUHAI-1 02 (CAS-4B)    
1 42759U 17034B   21236.56263258  .00000394  00000-0  36929-4 0  9992
2 42759  43.0167 166.6110 0008952 238.6199 290.5430 15.10317301231442
ZHUHAI-1 01 (CAS-4A)    
1 42761U 17034D   21236.54963961  .00000489  00000-0  42501-4 0  9999
2 42761  43.0177 165.6875 0009460 239.7499 289.3489 15.10405846231445
MAX VALIER SAT          
1 42778U 17036P   21236.60134702  .00001436  00000-0  62366-4 0  9993
2 42778  97.2498 282.9665 0010096 300.1602  59.8635 15.23836133231664
RADFXSAT (FOX-1B)       
1 43017U 17073E   21236.43452864  .00001047  00000-0  84645-4 0  9996
2 43017  97.6990 137.7079 0256105  78.6035 284.3826 14.79655678203173
FOX-1D (AO-92)          
1 43137U 18004AC  21236.42473466  .00001695  00000-0  69723-4 0  9993
2 43137  97.4030 309.7590 0008002 342.5087  17.5874 15.25506246201028
DIWATA-2B               
1 43678U 18084H   21236.53553777  .00000349  00000-0  40328-4 0  9992
2 43678  97.9320   2.1979 0009905 177.2469 182.8759 14.91780442153589
ES'HAIL 2               
1 43700U 18090A   21236.53657082  .00000126  00000-0  00000-0 0  9991
2 43700   0.0189 219.1027 0002299 325.3298   7.5787  1.00273387 10051
FOX-1CLIFF (AO-95)      
1 43770U 18099N   21236.43553449  .00000039  00000-0  86560-5 0  9991
2 43770  97.6608 305.1089 0014327 184.5413 175.5680 14.95395280148616
ITASAT 1                
1 43786U 18099AE  21236.47544727  .00000877  00000-0  83795-4 0  9997
2 43786  97.6628 305.8733 0015291 177.2178 182.9131 14.95679230148653
JY1SAT (JO-97)          
1 43803U 18099AX  21236.42775034  .00000331  00000-0  34596-4 0  9999
2 43803  97.6592 305.5713 0015072 177.1341 182.9970 14.95942581148659
UWE-4                   
1 43880U 18111E   21236.49936569  .00000881  00000-0  81659-4 0  9990
2 43880  97.6810 143.0562 0010574 231.3573 128.6703 14.96951271145268
NEXUS (FO-99)           
1 43937U 19003F   21236.58794662  .00002142  00000-0  85232-4 0  9993
2 43937  97.1711 277.0327 0024518 128.2056 232.1395 15.26044407144654
PSAT2 (NO-104)          
1 44354U 19036R   21236.49831453  .00008263  00000-0  10303-3 0  9999
2 44354  28.5305  32.5853 0316632 295.1442  61.6626 15.15793540119300
BRICSAT2 (NO-103)       
1 44355U 19036S   21236.59392205  .00023953 -57985-5  22763-3 0  9994
2 44355  28.5258 334.7925 0246014  29.4190 332.0014 15.34458211119893
JAISAT-1                
1 44419U 19038F   21236.45466449  .00001519  00000-0  86997-4 0  9998
2 44419  97.5940 200.9339 0022716  78.6470 281.7312 15.13956792118084
DUCHIFAT-3              
1 44854U 19089C   21236.57871749  .00000470  00000-0  43835-4 0  9992
2 44854  36.9664  57.7287 0009612 328.1993  31.8217 14.99582407 93339
CAS-6 (TO-108)          
1 44881U 19093C   21236.48205803  .00000027  00000-0  10193-4 0  9998
2 44881  97.9219 314.5623 0016418  73.2966 287.0047 14.81472544 90806
RS-44 & BREEZE-KM R/B   
1 44909U 19096E   21236.56712234 -.00000010  00000-0 -76243-4 0  9994
2 44909  82.5177  67.5475 0216489 293.9920  63.8652 12.79710607 77538
ORBITAL FACTORY 2 (OF-2)
1 45113U 19071C   21236.26390441  .00003623  00000-0  11155-3 0  9995
2 45113  51.6420  68.6024 0011888 176.0584 184.0495 15.36266652 87599
HUSKYSAT-1 (HO-107)     
1 45119U 19071J   21236.53513992  .00003894  00000-0  11913-3 0  9991
2 45119  51.6414  66.6564 0011360 173.5077 186.6055 15.36256508 87633
BY70-2                  
1 45857U 20042B   21236.45293804  .00001137  00000-0  16767-3 0  9998
2 45857  97.9822 311.4949 0010646   4.0850 356.0447 14.77209024 61588
SALSAT                  
1 46495U 20068K   21236.54511150  .00000101  00000-0  11929-4 0  9998
2 46495  97.6967 173.6491 0016032 195.4673 164.6063 15.03524247 49565
BY70-3                  
1 46839U 20079N   21236.48120550  .00003229  00000-0  10002-3 0  9999
2 46839  97.2371 308.9935 0006008 334.4306  82.1436 15.34150485 44632
RADFXSAT-2 (AO-109)     
1 47311U 21002C   21236.55888927  .00001243  00000-0  65135-4 0  9991
2 47311  60.6865  36.2054 0041900  83.3134 277.2719 15.21886304 33239
UVSQ-SAT                
1 47438U 21006AB  21236.42544220  .00001062  00000-0  63263-4 0  9995
2 47438  97.4822 296.4197 0011715 217.4654 142.5762 15.13290171 32330
DIY-1 (ARDUIQUBE)       
1 47963U 21022AH  21236.53489303  .00002776  00000-0  18580-3 0  9992
2 47963  97.5515 137.6553 0021396  72.9807 287.3763 15.07560483 22152
